NORAD_CAT_ID,OBJECT_NAME,OBJECT_TYPE,EPOCH,MEAN_MOTION,ECCENTRICITY,INCLINATION,RA_OF_ASC_NODE,ARG_OF_PERICENTER,MEAN_ANOMALY,BSTAR,MEAN_MOTION_DOT,MEAN_MOTION_DDOT,TLE_LINE0,TLE_LINE1,TLE_LINE2,SEMIMAJOR_AXIS,PERIOD,APOGEE,PERIGEE,DECAYED
53568.0,STARLINK-4583,PAYLOAD,2023-07-08 19:29:30,15.08828332,0.0001473,53.2171,110.384,90.2055,269.9105,4.4235e-05,4.16e-06,0.0,0 STARLINK-4583,1 53568U 22101AT  23189.81216318  .00000416  00000-0  44235-4 0  9999,2 53568  53.2171 110.3840 0001473  90.2055 269.9105 15.08828332 49275,6917.916,95.438,540.8,538.762,0.0
53568.0,STARLINK-4583,PAYLOAD,2023-07-10 03:17:13,15.08847873,0.0001198,53.2177,104.4386,97.6429,262.4699,-3.4613e-05,-8.39e-06,0.0,0 STARLINK-4583,1 53568U 22101AT  23191.13695828 -.00000839  00000-0 -34613-4 0  9994,2 53568  53.2177 104.4386 0001198  97.6429 262.4699 15.08847873 49479,6917.856,95.437,540.55,538.893,0.0
53568.0,STARLINK-4583,PAYLOAD,2023-07-10 20:46:28,15.0883196,0.000107,53.2168,101.167,97.8881,262.2232,0.00013277,1.825e-05,0.0,0 STARLINK-4583,1 53568U 22101AT  23191.86560433  .00001825  00000-0  13277-3 0  9993,2 53568  53.2168 101.1670 0001070  97.8881 262.2232 15.08831960 49585,6917.905,95.438,540.51,539.03,0.0
53568.0,STARLINK-4583,PAYLOAD,2023-07-11 01:32:37,15.08839711,0.000102,53.2167,100.2746,96.233,263.8779,0.00014984,2.098e-05,0.0,0 STARLINK-4583,1 53568U 22101AT  23192.06431998  .00002098  00000-0  14984-3 0  9998,2 53568  53.2167 100.2746 0001020  96.2330 263.8779 15.08839711 49614,6917.881,95.438,540.452,539.041,0.0
53568.0,STARLINK-4583,PAYLOAD,2023-07-12 02:58:46,15.08852624,0.0001074,53.2164,95.5169,74.4183,285.6927,0.00013088,1.796e-05,0.0,0 STARLINK-4583,1 53568U 22101AT  23193.12415344  .00001796  00000-0  13088-3 0  9991,2 53568  53.2164  95.5169 0001074  74.4183 285.6927 15.08852624 49771,6917.842,95.437,540.45,538.964,0.0
53568.0,STARLINK-4583,PAYLOAD,2023-07-12 10:55:43,15.08843182,9.78e-05,53.2164,94.0295,100.8342,259.276,4.2901e-05,3.95e-06,0.0,0 STARLINK-4583,1 53568U 22101AT  23193.45536040  .00000395  00000-0  42901-4 0  9995,2 53568  53.2164  94.0295 0000978 100.8342 259.2760 15.08843182 49825,6917.871,95.437,540.412,539.059,0.0
53568.0,STARLINK-4583,PAYLOAD,2023-07-13 23:29:35,15.08845978,0.0001143,53.2171,87.1882,95.9902,264.122,2.0875e-05,4.4e-07,0.0,0 STARLINK-4583,1 53568U 22101AT  23194.97887943  .00000044  00000-0  20875-4 0  9991,2 53568  53.2171  87.1882 0001143  95.9902 264.1220 15.08845978 50057,6917.862,95.437,540.518,538.936,0.0
53568.0,STARLINK-4583,PAYLOAD,2023-07-15 02:31:07,15.08854219,0.0001129,53.2171,82.133,90.3183,269.7938,0.00012266,1.666e-05,0.0,0 STARLINK-4583,1 53568U 22101AT  23196.10495114  .00001666  00000-0  12266-3 0  9998,2 53568  53.2171  82.1330 0001129  90.3183 269.7938 15.08854219 50228,6917.837,95.437,540.483,538.921,0.0
53568.0,STARLINK-4583,PAYLOAD,2023-07-15 16:49:37,15.08831491,5.84e-05,53.2173,79.4565,93.5596,266.5462,-4.7225e-06,-3.63e-06,0.0,0 STARLINK-4583,1 53568U 22101AT  23196.70112984 -.00000363  00000-0 -47225-5 0  9995,2 53568  53.2173  79.4565 0000584  93.5596 266.5462 15.08831491 50310,6917.906,95.438,540.175,539.367,0.0
53568.0,STARLINK-4583,PAYLOAD,2023-07-15 23:11:09,15.08839431,9.78e-05,53.2161,78.2698,102.2379,257.8723,1.6262e-05,-2.9e-07,0.0,0 STARLINK-4583,1 53568U 22101AT  23196.96608211 -.00000029  00000-0  16262-4 0  9990,2 53568  53.2161  78.2698 0000978 102.2379 257.8723 15.08839431 50354,6917.882,95.438,540.424,539.071,0.0
53568.0,STARLINK-4583,PAYLOAD,2023-07-17 08:34:15,15.08843747,9.06e-05,53.2163,72.0252,104.7793,255.3299,6.965e-05,8.21e-06,0.0,0 STARLINK-4583,1 53568U 22101AT  23198.35712390  .00000821  00000-0  69650-4 0  9997,2 53568  53.2163  72.0252 0000906 104.7793 255.3299 15.08843747 50561,6917.869,95.437,540.361,539.107,0.0
53568.0,STARLINK-4583,PAYLOAD,2023-07-18 10:00:25,15.08849883,8.76e-05,53.2162,67.2674,103.3158,256.7932,0.00017339,2.474e-05,0.0,0 STARLINK-4583,1 53568U 22101AT  23199.41696192  .00002474  00000-0  17339-3 0  9998,2 53568  53.2162  67.2674 0000876 103.3158 256.7932 15.08849883 50724,6917.85,95.437,540.321,539.109,0.0
53568.0,STARLINK-4583,PAYLOAD,2023-07-18 19:32:44,15.08838112,8.5e-05,53.2158,65.4835,98.9594,261.1494,0.0001066,1.409e-05,0.0,0 STARLINK-4583,1 53568U 22101AT  23199.81440871  .00001409  00000-0  10660-3 0  9990,2 53568  53.2158  65.4835 0000850  98.9594 261.1494 15.08838112 50785,6917.886,95.438,540.339,539.163,0.0
53568.0,STARLINK-4583,PAYLOAD,2023-07-20 19:14:18,15.08842408,7.13e-05,53.217,56.5619,95.5025,264.6049,0.00014069,1.952e-05,0.0,0 STARLINK-4583,1 53568U 22101AT  23201.80160733  .00001952  00000-0  14069-3 0  9999,2 53568  53.2170  56.5619 0000713  95.5025 264.6049 15.08842408 51081,6917.873,95.437,540.231,539.245,0.0
53568.0,STARLINK-4583,PAYLOAD,2023-07-21 15:54:20,15.08836311,7.52e-05,53.2169,52.6958,99.539,260.5687,9.4451e-05,1.216e-05,0.0,0 STARLINK-4583,1 53568U 22101AT  23202.66273267  .00001216  00000-0  94451-4 0  9998,2 53568  53.2169  52.6958 0000752  99.5390 260.5687 15.08836311 51218,6917.892,95.438,540.277,539.236,0.0
53568.0,STARLINK-4583,PAYLOAD,2023-07-24 13:51:18,15.0883813,7.81e-05,53.2178,39.6091,90.4027,269.7054,8.4867e-05,1.063e-05,0.0,0 STARLINK-4583,1 53568U 22101AT  23205.57729431  .00001063  00000-0  84867-4 0  9990,2 53568  53.2178  39.6091 0000781  90.4027 269.7054 15.08838130 52345,6917.886,95.438,540.291,539.211,0.0
53568.0,STARLINK-4583,PAYLOAD,2023-07-25 13:42:05,15.08835999,0.0001009,53.2176,35.1499,88.2246,271.8862,7.3042e-05,8.75e-06,0.0,0 STARLINK-4583,1 53568U 22101AT  23206.57089755  .00000875  00000-0  73042-4 0  9992,2 53568  53.2176  35.1499 0001009  88.2246 271.8862 15.08835999 52495,6917.893,95.438,540.456,539.06,0.0
53568.0,STARLINK-4583,PAYLOAD,2023-07-26 11:57:29,15.08837255,0.0001021,53.2168,30.9873,90.9378,269.1731,1.2448e-05,-9e-07,0.0,0 STARLINK-4583,1 53568U 22101AT  23207.49826066 -.00000090  00000-0  12448-4 0  9991,2 53568  53.2168  30.9873 0001021  90.9378 269.1731 15.08837255 52633,6917.889,95.438,540.46,539.047,0.0
53568.0,STARLINK-4583,PAYLOAD,2023-07-26 15:08:15,15.08844292,8.55e-05,53.2172,30.3931,81.1256,278.9833,-9.5611e-06,-4.4e-06,0.0,0 STARLINK-4583,1 53568U 22101AT  23207.63073706 -.00000440  00000-0 -95611-5 0  9996,2 53568  53.2172  30.3931 0000855  81.1256 278.9833 15.08844292 51963,6917.867,95.437,540.324,539.141,0.0
53568.0,STARLINK-4583,PAYLOAD,2023-07-27 11:48:16,15.08837032,0.000102,53.2173,26.5285,67.7429,292.3672,5.3484e-05,5.63e-06,0.0,0 STARLINK-4583,1 53568U 22101AT  23208.49185984  .00000563  00000-0  53484-4 0  9998,2 53568  53.2173  26.5285 0001020  67.7429 292.3672 15.08837032 52786,6917.889,95.438,540.46,539.049,0.0
53568.0,STARLINK-4583,PAYLOAD,2023-07-27 14:59:02,15.08849732,8.44e-05,53.2173,25.9336,61.8475,298.2602,-0.00014814,-2.645e-05,0.0,0 STARLINK-4583,1 53568U 22101AT  23208.62433866 -.00002645  00000-0 -14814-3 0  9996,2 53568  53.2173  25.9336 0000844  61.8475 298.2602 15.08849732 52806,6917.851,95.437,540.3,539.132,0.0
53568.0,STARLINK-4583,PAYLOAD,2023-07-28 06:52:54,15.08836959,7.63e-05,53.2174,22.9595,76.8785,283.2292,6.096e-05,6.83e-06,0.0,0 STARLINK-4583,1 53568U 22101AT  23209.28674056  .00000683  00000-0  60960-4 0  9999,2 53568  53.2174  22.9595 0000763  76.8785 283.2292 15.08836959 52212,6917.89,95.438,540.283,539.227,0.0
53568.0,STARLINK-4583,PAYLOAD,2023-07-29 06:43:40,15.0884251,8.34e-05,53.2172,18.4986,89.29,270.8188,0.00010151,1.328e-05,0.0,0 STARLINK-4583,1 53568U 22101AT  23210.28033536  .00001328  00000-0  10151-3 0  9996,2 53568  53.2172  18.4986 0000834  89.2900 270.8188 15.08842510 52362,6917.873,95.437,540.315,539.161,0.0
53568.0,STARLINK-4583,PAYLOAD,2023-07-30 11:20:37,15.08835388,8.04e-05,53.2166,13.1422,128.7975,231.3089,-1.5837e-05,-5.4e-06,0.0,0 STARLINK-4583,1 53568U 22101AT  23211.47266178 -.00000540  00000-0 -15837-4 0  9992,2 53568  53.2166  13.1422 0000804 128.7975 231.3089 15.08835388 52547,6917.894,95.438,540.316,539.203,0.0
53568.0,STARLINK-4583,PAYLOAD,2023-07-30 17:42:10,15.08842947,7.75e-05,53.2176,11.957,94.3958,265.7123,7.5827e-05,9.19e-06,0.0,0 STARLINK-4583,1 53568U 22101AT  23211.73761724  .00000919  00000-0  75827-4 0  9991,2 53568  53.2176  11.9570 0000775  94.3958 265.7123 15.08842947 52587,6917.871,95.437,540.273,539.2,0.0
53568.0,STARLINK-4583,PAYLOAD,2023-07-31 11:11:25,15.08835051,8.19e-05,53.2175,8.6862,88.3373,271.7713,6.7687e-06,-1.8e-06,0.0,0 STARLINK-4583,1 53568U 22101AT  23212.46626504 -.00000180  00000-0  67687-5 0  9995,2 53568  53.2175   8.6862 0000819  88.3373 271.7713 15.08835051 52698,6917.896,95.438,540.327,539.194,0.0
53568.0,STARLINK-4583,PAYLOAD,2023-07-31 17:32:57,15.08841754,7.89e-05,53.2178,7.4969,89.0875,271.0208,6.1722e-05,6.95e-06,0.0,0 STARLINK-4583,1 53568U 22101AT  23212.73122007  .00000695  00000-0  61722-4 0  9997,2 53568  53.2178   7.4969 0000789  89.0875 271.0208 15.08841754 52731,6917.875,95.437,540.286,539.194,0.0
53568.0,STARLINK-4583,PAYLOAD,2023-08-01 17:23:44,15.08839618,8.38e-05,53.2181,3.0363,90.0414,270.0675,0.00012564,1.712e-05,0.0,0 STARLINK-4583,1 53568U 22101AT  23213.72482328  .00001712  00000-0  12564-3 0  9992,2 53568  53.2181   3.0363 0000838  90.0414 270.0675 15.08839618 52880,6917.882,95.438,540.326,539.167,0.0
53568.0,STARLINK-4583,PAYLOAD,2023-08-03 09:08:23,15.08842,9.45e-05,53.2166,355.6043,62.3436,297.7652,0.00016073,2.271e-05,0.0,0 STARLINK-4583,1 53568U 22101AT  23215.38082306  .00002271  00000-0  16073-3 0  9998,2 53568  53.2166 355.6043 0000945  62.3436 297.7652 15.08842000 53138,6917.874,95.437,540.393,539.086,0.0
53568.0,STARLINK-4583,PAYLOAD,2023-08-04 13:45:19,15.08841386,8.38e-05,53.2183,350.2488,94.1102,265.9986,-2.5378e-05,-6.92e-06,0.0,0 STARLINK-4583,1 53568U 22101AT  23216.57314726 -.00000692  00000-0 -25378-4 0  9990,2 53568  53.2183 350.2488 0000838  94.1102 265.9986 15.08841386 53318,6917.876,95.437,540.321,539.161,0.0
